{"type":"FeatureCollection","features":[{"type":"Feature","geometry":{"type":"Polygon","coordinates":[[[139.17460871651906,35.98904572158284],[139.17018511055448,35.98611961362934],[139.17861477355302,35.969734667420994],[139.20153119360975,35.9657708020809],[139.2129270041779,35.956444171461385],[139.2305907000009,35.9745283066361],[139.2598596117317,35.98644497305713],[139.27171408643596,35.98491858612391],[139.2881971729612,35.99125330629511],[139.29057302262697,35.99836274834223],[139.316601479175,36.00910272111372],[139.31596924858206,36.014997414698996],[139.29623817145455,36.03247158649458],[139.28781841808564,36.029260748684635],[139.2703995330121,36.02930019834554],[139.25834425408414,36.03360877562454],[139.2296288849651,36.01904405453956],[139.22379469506916,36.01087155897534],[139.213372995967,36.00608738692341],[139.1902068872381,36.006095946670655],[139.1762007260827,35.997730414327236],[139.17460871651906,35.98904572158284]]]},"properties":{"N03_001":"埼玉県","N03_002":null,"N03_003":"比企郡","N03_004":"ときがわ町","N03_007":"11349"}}]}