{"type":"FeatureCollection","features":[{"type":"Feature","geometry":{"type":"Polygon","coordinates":[[[139.48709752383172,35.8420336941997],[139.49079671959305,35.84915758655342],[139.5096426075204,35.84997561348382],[139.52155705621328,35.8433000547538],[139.52780513659786,35.8493536675378],[139.51861741975813,35.863690586751204],[139.54967613524548,35.86943833291281],[139.5471100780677,35.881090532102405],[139.5280586644758,35.88122886492022],[139.51442005264335,35.888068585896576],[139.51095749729075,35.87977972165686],[139.4955779517611,35.864391973410875],[139.4746292222609,35.85517646841936],[139.48500727636474,35.849547305963426],[139.48709752383172,35.8420336941997]]]},"properties":{"N03_001":"埼玉県","N03_002":null,"N03_003":null,"N03_004":"ふじみ野市","N03_007":"11245"}}]}