{"type":"FeatureCollection","features":[{"type":"Feature","geometry":{"type":"Polygon","coordinates":[[[139.47789885954478,35.8375840007011],[139.48244666728,35.83872983861119],[139.50316321700893,35.81430930602971],[139.53226642055893,35.8250126134414],[139.53454472129116,35.81917955996786],[139.55246394301966,35.81997038738121],[139.55531202373095,35.825625919600554],[139.55528678335838,35.8282431356123],[139.54048399554006,35.8355092521503],[139.52780513659786,35.8493536675378],[139.52155705621328,35.8433000547538],[139.5096426075204,35.84997561348382],[139.49079671959305,35.84915758655342],[139.48709752383172,35.8420336941997],[139.47789885954478,35.8375840007011]]]},"properties":{"N03_001":"埼玉県","N03_002":null,"N03_003":"入間郡","N03_004":"三芳町","N03_007":"11324"}}]}