{"type":"FeatureCollection","features":[{"type":"Feature","geometry":{"type":"Polygon","coordinates":[[[139.84085791236282,35.855851892550845],[139.84743856024147,35.828324973019164],[139.86487050616904,35.82318441402953],[139.8670534764368,35.811485252242676],[139.85579199760264,35.80437861338237],[139.85879917044542,35.79443891942066],[139.87077061007562,35.79731666723046],[139.8713410896197,35.78557669420911],[139.87724938994745,35.781166108629066],[139.89377805411402,35.78274638743591],[139.88852341162624,35.79645080266249],[139.89153416377076,35.819338559526955],[139.88799224414686,35.82433269449831],[139.89003630423213,35.84400238750021],[139.89614055873983,35.85293264012927],[139.89920927398884,35.86685650522361],[139.87826394302658,35.865712081047775],[139.8736086645083,35.86806072172499],[139.83978099939372,35.85943046854135],[139.84085791236282,35.855851892550845]]]},"properties":{"N03_001":"埼玉県","N03_002":null,"N03_003":null,"N03_004":"三郷市","N03_007":"11237"}}]}