{"type":"FeatureCollection","features":[{"type":"Feature","geometry":{"type":"Polygon","coordinates":[[[139.5477583921362,35.934202305891745],[139.55667455328808,35.935380360215504],[139.57494075261366,35.94412394596338],[139.5863966414919,35.94577644122984],[139.59727077872355,35.93663286491483],[139.59896000050367,35.94412230649931],[139.58822197116706,35.96030113528923],[139.60006953368213,35.95948005426112],[139.61361627796896,35.96602422563757],[139.6257003891617,35.95241425271564],[139.6369940601278,35.95518313489379],[139.6452896117263,35.95136261339394],[139.64887608376432,35.96222261328302],[139.6422394422965,35.96969786536425],[139.62073024630388,35.977180613294706],[139.6050558373571,35.99463472121545],[139.60500866431846,36.0025936134046],[139.590808366513,36.008662198102],[139.57361608361543,36.00862241389336],[139.57387408651994,35.997798000177625],[139.56401897559533,35.987862720987835],[139.5390350321411,35.992512360756905],[139.5417016344229,35.97695325209094],[139.53492461777694,35.96895772152169],[139.5348431913602,35.9607141714219],[139.54533486401283,35.951107252697625],[139.53658511071433,35.94813391954483],[139.54354313930446,35.937769252748865],[139.5477583921362,35.934202305891745]]]},"properties":{"N03_001":"埼玉県","N03_002":null,"N03_003":null,"N03_004":"上尾市","N03_007":"11219"}}]}