{"type":"FeatureCollection","features":[{"type":"Feature","geometry":{"type":"Polygon","coordinates":[[[139.16947005240104,36.27475283797315],[139.15902338542094,36.27782366752831],[139.12699635549745,36.278535054649126],[139.10780350282948,36.26170533343446],[139.11119513674623,36.258497000236446],[139.09651474755765,36.23824783806731],[139.11042338533105,36.235621413897206],[139.11918308782936,36.218922252659866],[139.13594369614475,36.221254748707736],[139.14937038903224,36.226896414438045],[139.16799744582556,36.23918141439083],[139.15558577276522,36.25000866726623],[139.16583861246204,36.259718108703794],[139.16947005240104,36.27475283797315]]]},"properties":{"N03_001":"埼玉県","N03_002":null,"N03_003":"児玉郡","N03_004":"上里町","N03_007":"11385"}}]}