{"type":"FeatureCollection","features":[{"type":"Feature","geometry":{"type":"Polygon","coordinates":[[[139.6042746169801,35.88860835988794],[139.6098603376845,35.884916387481326],[139.61883119380457,35.86913717154329],[139.6362904674312,35.86037527919581],[139.6401962778961,35.8581054145322],[139.635923555102,35.8891892522158],[139.6074157726199,35.8960126131916],[139.6042746169801,35.88860835988794]]]},"properties":{"N03_001":"埼玉県","N03_002":null,"N03_003":"さいたま市","N03_004":"中央区","N03_007":"11105"}}]}