{"type":"FeatureCollection","features":[{"type":"Feature","geometry":{"type":"Polygon","coordinates":[[[139.55957089548053,36.07177297344401],[139.56519771700107,36.05729408095715],[139.5621931917625,36.04793377522361],[139.57035736769842,36.040518802001145],[139.57077260717017,36.0356257481298],[139.5881909733348,36.02889466705528],[139.60424194640882,36.03678691948079],[139.60642644642348,36.04535694596632],[139.6201662265902,36.044746387236046],[139.65145544731115,36.03814283812153],[139.6606893902033,36.040286999945124],[139.65932693978652,36.048844505169825],[139.68371333320385,36.04208480227186],[139.68898280281417,36.045207027182585],[139.684585668394,36.05762005462185],[139.69928763951305,36.055605892497965],[139.70293433195388,36.06235672088599],[139.70833917021662,36.07451255930721],[139.69667191997314,36.07696783799537],[139.6911844493029,36.084268946254895],[139.7001323358387,36.09795446852394],[139.72016155621088,36.1010358381335],[139.7270605065372,36.1075394410924],[139.72637856052222,36.11251913564962],[139.71358472145778,36.12624917166198],[139.7030308957593,36.14510108144981],[139.6846205324117,36.13684780248417],[139.68540880707087,36.12659586570669],[139.66425538377905,36.11663089270161],[139.66834036351702,36.107027000195956],[139.64575000076195,36.09765450505142],[139.63965272409405,36.08711200001886],[139.62808927450044,36.07982061343063],[139.60363252981745,36.08713253244048],[139.59325489030095,36.07280277542782],[139.58626849529492,36.0777005597331],[139.5761653576452,36.07135719797634],[139.55957089548053,36.07177297344401]]]},"properties":{"N03_001":"埼玉県","N03_002":null,"N03_003":null,"N03_004":"久喜市","N03_007":"11232"}}]}