{"type":"FeatureCollection","features":[{"type":"Feature","geometry":{"type":"Polygon","coordinates":[[[139.6422394422965,35.96969786536425],[139.64480902751473,35.99367894602659],[139.63507686110836,36.00621533347089],[139.62228516243033,36.00928336073855],[139.6116468616134,36.02119777525718],[139.59561710804314,36.027236360369784],[139.590808366513,36.008662198102],[139.60500866431846,36.0025936134046],[139.6050558373571,35.99463472121545],[139.62073024630388,35.977180613294706],[139.6422394422965,35.96969786536425]]]},"properties":{"N03_001":"埼玉県","N03_002":null,"N03_003":"北足立郡","N03_004":"伊奈町","N03_007":"11301"}}]}