{"type":"FeatureCollection","features":[{"type":"Feature","geometry":{"type":"Polygon","coordinates":[[[139.4194633591468,35.817828468309244],[139.40743457874282,35.84029955937723],[139.39401014315365,35.84167010818902],[139.38963269849035,35.85263508144391],[139.37234988354032,35.84899761334924],[139.36405121938833,35.84223205406607],[139.3608888073726,35.8593795327393],[139.35016849557962,35.858982613357],[139.34472345042695,35.8499889998925],[139.34547888544228,35.82765791977721],[139.3263391053655,35.82643069412131],[139.31610600578756,35.81876600075037],[139.32224586355585,35.79960797342926],[139.33278330720395,35.791890198473936],[139.34670783419926,35.7964051980415],[139.3687144236318,35.79028880268612],[139.36991070001886,35.78154164033447],[139.3814793000297,35.774270802355716],[139.3936757464386,35.77518164022058],[139.39527997419157,35.78230855969235],[139.3858633331264,35.78827355957719],[139.38925403444625,35.799776559440716],[139.38605907956298,35.805611000247495],[139.4010141127112,35.80919766743847],[139.4194633591468,35.817828468309244]]]},"properties":{"N03_001":"埼玉県","N03_002":null,"N03_003":null,"N03_004":"入間市","N03_007":"11225"}}]}