{"type":"FeatureCollection","features":[{"type":"Feature","geometry":{"type":"Polygon","coordinates":[[[139.82105561612389,35.81507700060314],[139.82048630479915,35.79753925213481],[139.82605016927994,35.793360360692134],[139.8380077566527,35.80080644146415],[139.8526480297828,35.79215697336571],[139.85879917044542,35.79443891942066],[139.85579199760264,35.80437861338237],[139.8670534764368,35.811485252242676],[139.86487050616904,35.82318441402953],[139.84743856024147,35.828324973019164],[139.84085791236282,35.855851892550845],[139.82874927395994,35.85722466718471],[139.83058328119353,35.835542775278896],[139.81295780835626,35.81558644136123],[139.82105561612389,35.81507700060314]]]},"properties":{"N03_001":"埼玉県","N03_002":null,"N03_003":null,"N03_004":"八潮市","N03_007":"11234"}}]}