{"type":"FeatureCollection","features":[{"type":"Feature","geometry":{"type":"Polygon","coordinates":[[[139.5309412452424,36.11767138762451],[139.53782233503284,36.105756107958086],[139.55116791266914,36.10067500045096],[139.54001000066103,36.08187097326686],[139.55303819765481,36.07920100032595],[139.55957089548053,36.07177297344401],[139.5761653576452,36.07135719797634],[139.58626849529492,36.0777005597331],[139.59325489030095,36.07280277542782],[139.60363252981745,36.08713253244048],[139.62808927450044,36.07982061343063],[139.63965272409405,36.08711200001886],[139.64575000076195,36.09765450505142],[139.66834036351702,36.107027000195956],[139.66425538377905,36.11663089270161],[139.68540880707087,36.12659586570669],[139.6846205324117,36.13684780248417],[139.7030308957593,36.14510108144981],[139.6961173026715,36.15639638738344],[139.69088791224738,36.17525525252796],[139.69364686141364,36.1916752255313],[139.6865729965466,36.20330910822884],[139.6749110514039,36.20828802757046],[139.6626210251403,36.2071224684272],[139.6493984954443,36.21119110838299],[139.65150430657854,36.19837417113115],[139.63724535768722,36.19720891955603],[139.61862083068684,36.18980286491035],[139.6098836067431,36.19680813488759],[139.6030366156474,36.18617122532186],[139.61310325611043,36.171464838531506],[139.60709871663255,36.15927233295184],[139.58961481237372,36.16411569388424],[139.58630389171128,36.1504551080169],[139.57262403427183,36.15016044155118],[139.57281686150907,36.14299289250806],[139.5631534500717,36.136773694750275],[139.52442522714261,36.13821617133931],[139.535539663225,36.12662030658191],[139.5309412452424,36.11767138762451]]]},"properties":{"N03_001":"埼玉県","N03_002":null,"N03_003":null,"N03_004":"加須市","N03_007":"11210"}}]}