{"type":"FeatureCollection","features":[{"type":"Feature","geometry":{"type":"Polygon","coordinates":[[[139.59724177738622,35.91501402717569],[139.61178649844817,35.91631433353973],[139.61850435858935,35.921995359898006],[139.6416317775845,35.92424689268],[139.6424360574781,35.93924961327906],[139.6257003891617,35.95241425271564],[139.61361627796896,35.96602422563757],[139.60006953368213,35.95948005426112],[139.58822197116706,35.96030113528923],[139.59896000050367,35.94412230649931],[139.59727077872355,35.93663286491483],[139.59724177738622,35.91501402717569]]]},"properties":{"N03_001":"埼玉県","N03_002":null,"N03_003":"さいたま市","N03_004":"北区","N03_007":"11102"}}]}