{"type":"FeatureCollection","features":[{"type":"Feature","geometry":{"type":"Polygon","coordinates":[[[139.49429644662382,36.035066748431746],[139.50416252927732,36.02373617108748],[139.49963968942018,36.013554505536035],[139.50038713395918,36.00188733353366],[139.5077746436849,35.99601677505416],[139.52316197104824,36.01180144088386],[139.55284630481322,36.01458346845237],[139.559177173188,36.01842155910771],[139.55643527966447,36.029186532132826],[139.56430814540465,36.03549905433795],[139.55347452712783,36.044398505186905],[139.54636588817527,36.04415986558536],[139.53295557733804,36.05158374839135],[139.5205810516743,36.0475795592493],[139.52272267201374,36.03603646850826],[139.49429644662382,36.035066748431746]]]},"properties":{"N03_001":"埼玉県","N03_002":null,"N03_003":null,"N03_004":"北本市","N03_007":"11233"}}]}