{"type":"FeatureCollection","features":[{"type":"Feature","geometry":{"type":"Polygon","coordinates":[[[139.6362904674312,35.86037527919581],[139.63316600500718,35.85138489249886],[139.63591869039533,35.8410123602323],[139.61656852112037,35.83399472097966],[139.61870338575272,35.829091440917296],[139.6500024387616,35.83280533339945],[139.66328944265376,35.82901119800846],[139.67710477306684,35.832694802223386],[139.67522930079167,35.85050477547509],[139.6957146438158,35.84857538704455],[139.69805719878082,35.85740317091967],[139.69462416367423,35.863396000325224],[139.67850046782235,35.866778586162866],[139.6663446689713,35.861316279422795],[139.66696963663946,35.852563224713094],[139.65898749697544,35.8470401354939],[139.6401962778961,35.8581054145322],[139.6362904674312,35.86037527919581]]]},"properties":{"N03_001":"埼玉県","N03_002":null,"N03_003":"さいたま市","N03_004":"南区","N03_007":"11108"}}]}