{"type":"FeatureCollection","features":[{"type":"Feature","geometry":{"type":"Polygon","coordinates":[[[139.83978099939372,35.85943046854135],[139.8736086645083,35.86806072172499],[139.87826394302658,35.865712081047775],[139.89920927398884,35.86685650522361],[139.88991972871258,35.89256094593094],[139.86091966301206,35.932493694728294],[139.8492910251607,35.9383484143479],[139.8371439695186,35.92703317134385],[139.84697027246023,35.911048441432456],[139.83727744509804,35.906136802171716],[139.82861678313805,35.89804986540901],[139.83863542228698,35.893898468039936],[139.83992717340038,35.870003532537055],[139.83978099939372,35.85943046854135]]]},"properties":{"N03_001":"埼玉県","N03_002":null,"N03_003":null,"N03_004":"吉川市","N03_007":"11243"}}]}