{"type":"FeatureCollection","features":[{"type":"Feature","geometry":{"type":"Polygon","coordinates":[[[139.42159335934616,36.06964335995315],[139.4161880030739,36.0546836404377],[139.41986297020003,36.04841502763145],[139.4179684700689,36.035586414481486],[139.43546347645838,36.02160055911855],[139.4397112190976,36.013373613201736],[139.4570812458029,36.01188550501212],[139.47915522773167,36.0197562519495],[139.49963968942018,36.013554505536035],[139.50416252927732,36.02373617108748],[139.49429644662382,36.035066748431746],[139.4830396109893,36.05905822525693],[139.47281875568115,36.060376865200226],[139.45605686133513,36.079834667136254],[139.4466198830013,36.083588027265705],[139.44543655055645,36.08054164038447],[139.42159335934616,36.06964335995315]]]},"properties":{"N03_001":"埼玉県","N03_002":null,"N03_003":"比企郡","N03_004":"吉見町","N03_007":"11347"}}]}