{"type":"FeatureCollection","features":[{"type":"Feature","geometry":{"type":"Polygon","coordinates":[[[139.623370532624,35.80984119801292],[139.6144321402312,35.80582233373377],[139.61424761373644,35.796871224927145],[139.6044675620284,35.79278486562907],[139.59720075211305,35.77836600019083],[139.6031665245156,35.77085964055999],[139.61723297082506,35.77034822489071],[139.6245266929526,35.78081125233746],[139.64630169976374,35.7978692520644],[139.623370532624,35.80984119801292]]]},"properties":{"N03_001":"埼玉県","N03_002":null,"N03_003":null,"N03_004":"和光市","N03_007":"11229"}}]}