{"type":"FeatureCollection","features":[{"type":"Feature","geometry":{"type":"Polygon","coordinates":[[[139.46769830103585,35.96007397373495],[139.45032277677478,35.979223946727814],[139.44015888542424,35.98424922522162],[139.43019418941037,35.99800255907087],[139.40439574616687,35.98536625245066],[139.37936236158373,35.981605441438035],[139.35857783479935,35.97659744161871],[139.3488844489582,35.968838000173605],[139.3583355250645,35.952470802085884],[139.347488249683,35.94104805412445],[139.34331766527805,35.931268081556766],[139.3340265246045,35.93594419826621],[139.32396066115564,35.92886725232188],[139.32752620057374,35.92309753212544],[139.34144511040358,35.920422252285164],[139.35239627816577,35.928188054635086],[139.37215914452895,35.94496386509036],[139.39193700438932,35.95331800032551],[139.4096328662638,35.94920464068167],[139.42146041526598,35.95577127892142],[139.4311457206985,35.9588921080844],[139.43474625273745,35.94511825260531],[139.45067658895346,35.94833877521438],[139.46769830103585,35.96007397373495]]]},"properties":{"N03_001":"埼玉県","N03_002":null,"N03_003":null,"N03_004":"坂戸市","N03_007":"11239"}}]}