{"type":"FeatureCollection","features":[{"type":"Feature","geometry":{"type":"Polygon","coordinates":[[[139.6036774716381,35.88755058629056],[139.6042746169801,35.88860835988794],[139.6074157726199,35.8960126131916],[139.635923555102,35.8891892522158],[139.6472577563873,35.88983227963604],[139.64830808005388,35.9014811351463],[139.6478153576927,35.91225269390674],[139.6416317775845,35.92424689268],[139.61850435858935,35.921995359898006],[139.61178649844817,35.91631433353973],[139.59724177738622,35.91501402717569],[139.59731055843554,35.891019667124],[139.6036774716381,35.88755058629056]]]},"properties":{"N03_001":"埼玉県","N03_002":null,"N03_003":"さいたま市","N03_004":"大宮区","N03_007":"11103"}}]}