{"type":"FeatureCollection","features":[{"type":"Feature","geometry":{"type":"Polygon","coordinates":[[[139.74378805397555,36.00054486515347],[139.75181649883245,36.01360038714819],[139.7322083923035,36.026335387168444],[139.7075989112608,36.03582564044103],[139.6971928666576,36.048673694235674],[139.69928763951305,36.055605892497965],[139.684585668394,36.05762005462185],[139.68898280281417,36.045207027182585],[139.68371333320385,36.04208480227186],[139.68991939006787,36.02840953227417],[139.7044910512211,36.02583983823797],[139.70970966327036,36.01945150498301],[139.7053890530624,36.011957332964585],[139.71377406022475,36.004847919695806],[139.72461849554725,35.99807791956039],[139.74378805397555,36.00054486515347]]]},"properties":{"N03_001":"埼玉県","N03_002":null,"N03_003":"南埼玉郡","N03_004":"宮代町","N03_007":"11442"}}]}