{"type":"FeatureCollection","features":[{"type":"Feature","geometry":{"type":"Polygon","coordinates":[[[139.1902433592437,36.17666835995692],[139.19774136237402,36.15904836039357],[139.19285241210923,36.144415306121516],[139.1767415306972,36.13481058623961],[139.16061985742056,36.13497250557674],[139.1481753833873,36.13314941431406],[139.13966641996933,36.113437748153615],[139.13928464337164,36.090765802499845],[139.15151269825253,36.08838361351303],[139.15747827550206,36.09258694673025],[139.17371883375722,36.08535280199027],[139.1900418292671,36.06924727963832],[139.19769600506663,36.068694505047404],[139.2099113884998,36.08752589230613],[139.22747444928643,36.0880264684468],[139.2520466678195,36.08354900028621],[139.27093230937862,36.098645108285154],[139.2800117514413,36.093043171005604],[139.28817566837245,36.09895261347236],[139.28817374831988,36.10669010876154],[139.27568625251865,36.10621872101723],[139.27304352813633,36.11925038759534],[139.21679900107313,36.11910755906666],[139.2165384953554,36.127679225016266],[139.2009174198031,36.13687669410422],[139.20543380072934,36.14210061305289],[139.23270224431315,36.15701977494274],[139.22046805425737,36.159033667269966],[139.1902433592437,36.17666835995692]]]},"properties":{"N03_001":"埼玉県","N03_002":null,"N03_003":"大里郡","N03_004":"寄居町","N03_007":"11408"}}]}