{"type":"FeatureCollection","features":[{"type":"Feature","geometry":{"type":"Polygon","coordinates":[[[139.54946652396097,35.88723105446962],[139.5471100780677,35.881090532102405],[139.54967613524548,35.86943833291281],[139.51861741975813,35.863690586751204],[139.52780513659786,35.8493536675378],[139.54048399554006,35.8355092521503],[139.55528678335838,35.8282431356123],[139.57088547298622,35.835278387187884],[139.5851390016636,35.86050194600807],[139.57647263350532,35.87145997289946],[139.55890620026105,35.87410441408747],[139.559567612955,35.880549667233424],[139.54946652396097,35.88723105446962]]]},"properties":{"N03_001":"埼玉県","N03_002":null,"N03_003":null,"N03_004":"富士見市","N03_007":"11235"}}]}