{"type":"FeatureCollection","features":[{"type":"Feature","geometry":{"type":"Polygon","coordinates":[[[139.28817566837245,36.09895261347236],[139.2800117514413,36.093043171005604],[139.27093230937862,36.098645108285154],[139.2520466678195,36.08354900028621],[139.22747444928643,36.0880264684468],[139.2099113884998,36.08752589230613],[139.19769600506663,36.068694505047404],[139.22546766520065,36.05911094621325],[139.22987652408233,36.05324955902],[139.1993986384365,36.029522613278004],[139.1857427767078,36.02492425195271],[139.1902068872381,36.006095946670655],[139.213372995967,36.00608738692341],[139.22379469506916,36.01087155897534],[139.2296288849651,36.01904405453956],[139.25834425408414,36.03360877562454],[139.2703995330121,36.02930019834554],[139.28781841808564,36.029260748684635],[139.29623817145455,36.03247158649458],[139.30033525336933,36.059260171619655],[139.30804583734562,36.062972359886544],[139.2907897547434,36.081121532233],[139.28817566837245,36.09895261347236]]]},"properties":{"N03_001":"埼玉県","N03_002":null,"N03_003":"比企郡","N03_004":"小川町","N03_007":"11343"}}]}