{"type":"FeatureCollection","features":[{"type":"Feature","geometry":{"type":"Polygon","coordinates":[[[138.93107632910937,36.088119532090786],[138.9163140863261,36.093749027295814],[138.89785878115788,36.090654613020035],[138.88671294434698,36.08417797353468],[138.86433291862932,36.077085802068154],[138.86152319104247,36.07140802765838],[138.84603705606537,36.06662500044348],[138.8428270303432,36.05581777547002],[138.83219280255582,36.04772944116081],[138.828394721839,36.037302532286105],[138.84179280279568,36.03047583798957],[138.83821608300593,36.018537532081496],[138.84107477328223,36.00056255931469],[138.85686941619065,35.98677564028361],[138.87879632928718,35.97505677525004],[138.89869552567802,35.97542146832615],[138.91832858659507,35.96810397351959],[138.9270205584521,35.97013144111315],[138.93972639435765,35.966805586308794],[138.95081172568064,35.969878865617204],[138.95814847047563,35.97964905446037],[138.97392269877355,35.979100667661726],[138.9815921666452,35.982910918903826],[138.9929874457141,35.97617955903945],[139.00840472140078,35.979683135168614],[139.0126179777376,35.96661266734077],[139.02887413743156,35.969048559343605],[139.04355199772658,35.979238558912414],[139.05048985722124,35.991997973727564],[139.04078267218267,36.001718946272376],[139.05099050620697,36.00931674806952],[139.05022693952174,36.01929419826871],[139.0380600007685,36.02051825201579],[139.02413858632679,36.01599313507518],[139.0093474977889,36.027867170933234],[138.98405272435377,36.03434397319586],[138.96932518820688,36.043281558896865],[138.97250469543542,36.05316322500289],[138.95485494270156,36.0597530270806],[138.93341019572404,36.078825054033075],[138.93107632910937,36.088119532090786]]]},"properties":{"N03_001":"埼玉県","N03_002":null,"N03_003":"秩父郡","N03_004":"小鹿野町","N03_007":"11365"}}]}