{"type":"FeatureCollection","features":[{"type":"Feature","geometry":{"type":"Polygon","coordinates":[[[139.70042080417682,35.915710532315245],[139.7176702722653,35.90888441448419],[139.73102224408137,35.89895917172845],[139.74336055854303,35.88593669442298],[139.7522888857236,35.88029280197128],[139.74523810645348,35.89372250488975],[139.7534767444563,35.895784135029885],[139.75450905374987,35.910482171615],[139.7451226721737,35.91749300030176],[139.754275305561,35.93545769471689],[139.75194586361079,35.94052853196621],[139.74576116744402,35.95225713575826],[139.7205683015859,35.95837850526385],[139.71338108976556,35.965575171656894],[139.72464727655063,35.972719892309215],[139.72448678353828,35.98572625196499],[139.70785730267244,35.99530541401367],[139.69196810684275,35.99903372172895],[139.69560141467366,35.991082613172125],[139.68434380022632,35.97560958671312],[139.66607900114502,35.975600108758044],[139.65787975434728,35.96394150549611],[139.66952644608864,35.96358153206211],[139.68208919625943,35.94950044119247],[139.6846019200426,35.93303546791259],[139.69079719853198,35.930382694505795],[139.70042080417682,35.915710532315245]]]},"properties":{"N03_001":"埼玉県","N03_002":null,"N03_003":"さいたま市","N03_004":"岩槻区","N03_007":"11110"}}]}