{"type":"FeatureCollection","features":[{"type":"Feature","geometry":{"type":"Polygon","coordinates":[[[139.30122433213728,36.110350666949785],[139.28817374831988,36.10669010876154],[139.28817566837245,36.09895261347236],[139.2907897547434,36.081121532233],[139.30804583734562,36.062972359886544],[139.30033525336933,36.059260171619655],[139.29623817145455,36.03247158649458],[139.31596924858206,36.014997414698996],[139.316601479175,36.00910272111372],[139.33554732854645,36.00661435996477],[139.34272347600768,36.00900853241791],[139.33774208802697,36.014296305929804],[139.33892380079283,36.0259865590325],[139.33186992245896,36.03104517089798],[139.33114771739326,36.04126710809061],[139.34099917077515,36.048234306168354],[139.33364046723386,36.05371055959472],[139.33673169970825,36.062189586380384],[139.3259650323604,36.066860694765296],[139.3314231653469,36.081783198535845],[139.32091260783068,36.09055680275429],[139.30923294424508,36.10522594592072],[139.30122433213728,36.110350666949785]]]},"properties":{"N03_001":"埼玉県","N03_002":null,"N03_003":"比企郡","N03_004":"嵐山町","N03_007":"11342"}}]}