{"type":"FeatureCollection","features":[{"type":"Feature","geometry":{"type":"Polygon","coordinates":[[[139.53658511071433,35.94813391954483],[139.54533486401283,35.951107252697625],[139.5348431913602,35.9607141714219],[139.52294791261613,35.96797550536536],[139.51239489001227,35.983974333049105],[139.5077746436849,35.99601677505416],[139.50038713395918,36.00188733353366],[139.49963968942018,36.013554505536035],[139.47915522773167,36.0197562519495],[139.4570812458029,36.01188550501212],[139.4546387168034,36.00499219793164],[139.43453810644849,36.003632532715244],[139.43019418941037,35.99800255907087],[139.44015888542424,35.98424922522162],[139.45032277677478,35.979223946727814],[139.46769830103585,35.96007397373495],[139.47947000034026,35.95637591921337],[139.50281810667036,35.95552253273877],[139.53658511071433,35.94813391954483]]]},"properties":{"N03_001":"埼玉県","N03_002":null,"N03_003":"比企郡","N03_004":"川島町","N03_007":"11346"}}]}