{"type":"FeatureCollection","features":[{"type":"Feature","geometry":{"type":"Polygon","coordinates":[[[139.67710477306684,35.832694802223386],[139.709848755116,35.82630902753965],[139.6995183920602,35.81532177537969],[139.697671920223,35.79844455916913],[139.70919552535327,35.7920173329336],[139.73387163446841,35.79004708110796],[139.73783297001557,35.78052791912819],[139.7550008300243,35.786895694780526],[139.76076924800248,35.797410414359206],[139.7506556683245,35.80666874866387],[139.76761494227583,35.81768400031643],[139.78828725075607,35.82467369403582],[139.7790742539737,35.83306480219892],[139.77866542217157,35.84216310844073],[139.77133708244048,35.84848422546668],[139.76360577268838,35.863375613593746],[139.76985108945632,35.86631419874135],[139.7522888857236,35.88029280197128],[139.74336055854303,35.88593669442298],[139.7408082753817,35.87630283830538],[139.71354428074403,35.87671369448145],[139.7202145532591,35.87031591924432],[139.7178625554127,35.86229289190351],[139.70410863880272,35.86231566723433],[139.69805719878082,35.85740317091967],[139.6957146438158,35.84857538704455],[139.67522930079167,35.85050477547509],[139.67710477306684,35.832694802223386]]]},"properties":{"N03_001":"埼玉県","N03_002":null,"N03_003":null,"N03_004":"川口市","N03_007":"11203"}}]}