{"type":"FeatureCollection","features":[{"type":"Feature","geometry":{"type":"Polygon","coordinates":[[[139.54354313930446,35.937769252748865],[139.53658511071433,35.94813391954483],[139.50281810667036,35.95552253273877],[139.47947000034026,35.95637591921337],[139.46769830103585,35.96007397373495],[139.45067658895346,35.94833877521438],[139.43474625273745,35.94511825260531],[139.4311457206985,35.9588921080844],[139.42146041526598,35.95577127892142],[139.42882066114464,35.940242999914574],[139.41193083014377,35.92399969423053],[139.3891896375918,35.91423305411223],[139.37948185540336,35.919925559417095],[139.38443766576574,35.908515865115135],[139.392586835614,35.908246135051115],[139.40155097379852,35.89566974846019],[139.41170600502812,35.90091058635454],[139.44130072674716,35.884886171159906],[139.45397763955646,35.876157000645094],[139.46200072625254,35.87786144165227],[139.46578900166116,35.86707672131371],[139.45878061013707,35.85904480237576],[139.4760541377883,35.8399256671359],[139.47789885954478,35.8375840007011],[139.48709752383172,35.8420336941997],[139.48500727636474,35.849547305963426],[139.4746292222609,35.85517646841936],[139.4955779517611,35.864391973410875],[139.51095749729075,35.87977972165686],[139.51442005264335,35.888068585896576],[139.5280586644758,35.88122886492022],[139.5471100780677,35.881090532102405],[139.54946652396097,35.88723105446962],[139.55491243875815,35.90368489234396],[139.54619111572742,35.921913171755534],[139.5477583921362,35.934202305891745],[139.54354313930446,35.937769252748865]]]},"properties":{"N03_001":"埼玉県","N03_002":null,"N03_003":null,"N03_004":"川越市","N03_007":"11201"}}]}