{"type":"FeatureCollection","features":[{"type":"Feature","geometry":{"type":"Polygon","coordinates":[[[139.70293433195388,36.06235672088599],[139.71659208855408,36.05181172113407],[139.73984155634287,36.04054674843377],[139.75308891182385,36.05499283814902],[139.76674308732368,36.04321310789868],[139.78022038955942,36.04486613556378],[139.78101489022504,36.05649361328966],[139.78951160847407,36.0618288656097],[139.78333632910835,36.069501919078334],[139.77986722399328,36.08275717150633],[139.76576102495142,36.08042774844188],[139.74675849580797,36.087079440963464],[139.7283054227571,36.090139440882524],[139.7270605065372,36.1075394410924],[139.72016155621088,36.1010358381335],[139.7001323358387,36.09795446852394],[139.6911844493029,36.084268946254895],[139.69667191997314,36.07696783799537],[139.70833917021662,36.07451255930721],[139.70293433195388,36.06235672088599]]]},"properties":{"N03_001":"埼玉県","N03_002":null,"N03_003":null,"N03_004":"幸手市","N03_007":"11240"}}]}