{"type":"FeatureCollection","features":[{"type":"Feature","geometry":{"type":"Polygon","coordinates":[[[139.5851390016636,35.86050194600807],[139.57088547298622,35.835278387187884],[139.55528678335838,35.8282431356123],[139.55531202373095,35.825625919600554],[139.56214978058802,35.81849730670541],[139.57794652431267,35.82292786532878],[139.58654771770307,35.831434225209364],[139.59522272474896,35.82700200014227],[139.60739922239623,35.834763387720216],[139.5851390016636,35.86050194600807]]]},"properties":{"N03_001":"埼玉県","N03_002":null,"N03_003":null,"N03_004":"志木市","N03_007":"11228"}}]}