{"type":"FeatureCollection","features":[{"type":"Feature","geometry":{"type":"Polygon","coordinates":[[[139.61870338575272,35.829091440917296],[139.623370532624,35.80984119801292],[139.64630169976374,35.7978692520644],[139.653362309523,35.80022591919089],[139.697671920223,35.79844455916913],[139.6995183920602,35.81532177537969],[139.68819697880758,35.81424900019124],[139.66328944265376,35.82901119800846],[139.6500024387616,35.83280533339945],[139.61870338575272,35.829091440917296]]]},"properties":{"N03_001":"埼玉県","N03_002":null,"N03_003":null,"N03_004":"戸田市","N03_007":"11224"}}]}