{"type":"FeatureCollection","features":[{"type":"Feature","geometry":{"type":"Polygon","coordinates":[[[139.4760541377883,35.8399256671359],[139.46337330753215,35.843601225116515],[139.4497940347669,35.83057069438212],[139.43264450114293,35.821527081309796],[139.4194633591468,35.817828468309244],[139.4010141127112,35.80919766743847],[139.38605907956298,35.805611000247495],[139.38925403444625,35.799776559440716],[139.3858633331264,35.78827355957719],[139.39527997419157,35.78230855969235],[139.3936757464386,35.77518164022058],[139.3814793000297,35.774270802355716],[139.3802231395863,35.766374973326435],[139.39845041535443,35.764404973310945],[139.40488491620602,35.769159694364475],[139.41956075212704,35.76590497323599],[139.44496834011682,35.766659972979426],[139.47115511061997,35.77340383791682],[139.47949933982272,35.77993744135989],[139.50670302232663,35.78277019788635],[139.5292637227427,35.79412877562254],[139.54169522752602,35.80730680226478],[139.54554136274373,35.81256844158037],[139.53454472129116,35.81917955996786],[139.53226642055893,35.8250126134414],[139.50316321700893,35.81430930602971],[139.48244666728,35.83872983861119],[139.47789885954478,35.8375840007011],[139.4760541377883,35.8399256671359]]]},"properties":{"N03_001":"埼玉県","N03_002":null,"N03_003":null,"N03_004":"所沢市","N03_007":"11208"}}]}