{"type":"FeatureCollection","features":[{"type":"Feature","geometry":{"type":"Polygon","coordinates":[[[139.54169522752602,35.80730680226478],[139.54719936365973,35.802658197717676],[139.53757900097014,35.7907587748976],[139.54783752258368,35.77398046792433],[139.54715824935374,35.75338410809019],[139.58224258123016,35.771207135001305],[139.59414352840122,35.778703504962834],[139.57871686109434,35.787533225078334],[139.5743356419764,35.81410510866391],[139.57794652431267,35.82292786532878],[139.56214978058802,35.81849730670541],[139.55531202373095,35.825625919600554],[139.55246394301966,35.81997038738121],[139.53454472129116,35.81917955996786],[139.54554136274373,35.81256844158037],[139.54169522752602,35.80730680226478]]]},"properties":{"N03_001":"埼玉県","N03_002":null,"N03_003":null,"N03_004":"新座市","N03_007":"11230"}}]}