{"type":"FeatureCollection","features":[{"type":"Feature","geometry":{"type":"Polygon","coordinates":[[[139.37948185540336,35.919925559417095],[139.36647464319026,35.92777083845351],[139.35239627816577,35.928188054635086],[139.34144511040358,35.920422252285164],[139.32752620057374,35.92309753212544],[139.30962391730998,35.9154586672837],[139.3084011154192,35.908683387228564],[139.27718939017825,35.900558721208085],[139.27918569446433,35.88256205409556],[139.27544649865706,35.87470402716917],[139.2823484446251,35.86992791933807],[139.296069830958,35.868490666910816],[139.327597173271,35.882545640568935],[139.33471522722607,35.878372306037136],[139.3461827506335,35.88059119792547],[139.3747152534063,35.86836119871043],[139.3894533592852,35.87570172155728],[139.38807061027046,35.882423946108304],[139.40155097379852,35.89566974846019],[139.392586835614,35.908246135051115],[139.38443766576574,35.908515865115135],[139.37948185540336,35.919925559417095]]]},"properties":{"N03_001":"埼玉県","N03_002":null,"N03_003":null,"N03_004":"日高市","N03_007":"11242"}}]}