{"type":"FeatureCollection","features":[{"type":"Feature","geometry":{"type":"Polygon","coordinates":[[[139.75194586361079,35.94052853196621],[139.76558581183576,35.93552202771946],[139.7792090533552,35.938107667634824],[139.7760988074141,35.947750171633174],[139.78695389160885,35.95507294635945],[139.8024341630063,35.94142791966283],[139.82068050620046,35.9659673336256],[139.8333314142135,35.96896702770624],[139.82523586374418,35.97553066760628],[139.8267447732527,35.98314591894905],[139.81425924876544,35.997061225195466],[139.81691233513618,36.002389532051325],[139.81340155633677,36.02313227903153],[139.81536939078478,36.03682750498541],[139.80694910501722,36.043167775772304],[139.77807975397752,36.026052306668646],[139.78349972872957,36.012689837965695],[139.77715549912705,36.00658819868647],[139.76001428063466,36.00483513493356],[139.7575309215149,35.99959930626301],[139.74378805397555,36.00054486515347],[139.72461849554725,35.99807791956039],[139.71377406022475,36.004847919695806],[139.70785730267244,35.99530541401367],[139.72448678353828,35.98572625196499],[139.72464727655063,35.972719892309215],[139.71338108976556,35.965575171656894],[139.7205683015859,35.95837850526385],[139.74576116744402,35.95225713575826],[139.75194586361079,35.94052853196621]]]},"properties":{"N03_001":"埼玉県","N03_002":null,"N03_003":null,"N03_004":"春日部市","N03_007":"11214"}}]}