{"type":"FeatureCollection","features":[{"type":"Feature","geometry":{"type":"Polygon","coordinates":[[[139.60739922239623,35.834763387720216],[139.59522272474896,35.82700200014227],[139.58654771770307,35.831434225209364],[139.57794652431267,35.82292786532878],[139.5743356419764,35.81410510866391],[139.57871686109434,35.787533225078334],[139.59414352840122,35.778703504962834],[139.59720075211305,35.77836600019083],[139.6044675620284,35.79278486562907],[139.61424761373644,35.796871224927145],[139.6144321402312,35.80582233373377],[139.623370532624,35.80984119801292],[139.61870338575272,35.829091440917296],[139.61656852112037,35.83399472097966],[139.60739922239623,35.834763387720216]]]},"properties":{"N03_001":"埼玉県","N03_002":null,"N03_003":null,"N03_004":"朝霞市","N03_007":"11227"}}]}