{"type":"FeatureCollection","features":[{"type":"Feature","geometry":{"type":"Polygon","coordinates":[[[139.24374871682983,36.24451113498094],[139.22400403475842,36.25830169446766],[139.21214535752233,36.25633644107393],[139.16947005240104,36.27475283797315],[139.16583861246204,36.259718108703794],[139.15558577276522,36.25000866726623],[139.16799744582556,36.23918141439083],[139.14937038903224,36.226896414438045],[139.13594369614475,36.221254748707736],[139.12787221872793,36.20685919819351],[139.10920661519322,36.20722808121104],[139.11037466905577,36.199226107898596],[139.09650377403,36.19357777549402],[139.07541533125254,36.17686077530459],[139.07632194680048,36.16162686508778],[139.06759608309278,36.16207130644568],[139.0668896377466,36.1431123602473],[139.05684372216012,36.12619677536094],[139.07124291852597,36.11891066689384],[139.08254878160108,36.121630414612014],[139.0880268876308,36.13148294628098],[139.10597116743554,36.143707170949256],[139.11525425468017,36.14312550563761],[139.1265323349993,36.14834886520799],[139.1366615305053,36.145659694439416],[139.14650516248332,36.15298610872202],[139.14288380034714,36.16416638776866],[139.15448496840668,36.176280279111666],[139.15242555149803,36.18236610830928],[139.16064978056295,36.19510253195631],[139.1630062003759,36.20522113524726],[139.17189289254304,36.21054753194312],[139.19409766557487,36.20824308125327],[139.19672547380162,36.216026135297966],[139.2189077826681,36.228265865177605],[139.24163503213106,36.22419613524352],[139.24760481281191,36.23251058609475],[139.24374871682983,36.24451113498094]]]},"properties":{"N03_001":"埼玉県","N03_002":null,"N03_003":null,"N03_004":"本庄市","N03_007":"11211"}}]}