{"type":"FeatureCollection","features":[{"type":"Feature","geometry":{"type":"Polygon","coordinates":[[[139.80694910501722,36.043167775772304],[139.78951160847407,36.0618288656097],[139.78101489022504,36.05649361328966],[139.78022038955942,36.04486613556378],[139.76674308732368,36.04321310789868],[139.75308891182385,36.05499283814902],[139.73984155634287,36.04054674843377],[139.71659208855408,36.05181172113407],[139.70293433195388,36.06235672088599],[139.69928763951305,36.055605892497965],[139.6971928666576,36.048673694235674],[139.7075989112608,36.03582564044103],[139.7322083923035,36.026335387168444],[139.75181649883245,36.01360038714819],[139.74378805397555,36.00054486515347],[139.7575309215149,35.99959930626301],[139.76001428063466,36.00483513493356],[139.77715549912705,36.00658819868647],[139.78349972872957,36.012689837965695],[139.77807975397752,36.026052306668646],[139.80694910501722,36.043167775772304]]]},"properties":{"N03_001":"埼玉県","N03_002":null,"N03_003":"北葛飾郡","N03_004":"杉戸町","N03_007":"11464"}}]}