{"type":"FeatureCollection","features":[{"type":"Feature","geometry":{"type":"Polygon","coordinates":[[[139.387150052533,36.101768108411534],[139.38042330709004,36.08729841419051],[139.37864457848457,36.06400869454569],[139.3847612193548,36.05252619832544],[139.38571897575025,36.04132369433307],[139.37424199777,36.04203372167899],[139.36794752315973,36.03659372172291],[139.33114771739326,36.04126710809061],[139.33186992245896,36.03104517089798],[139.33892380079283,36.0259865590325],[139.33774208802697,36.014296305929804],[139.34272347600768,36.00900853241791],[139.36904878167604,35.996241279111814],[139.37936236158373,35.981605441438035],[139.40439574616687,35.98536625245066],[139.43019418941037,35.99800255907087],[139.43453810644849,36.003632532715244],[139.4546387168034,36.00499219793164],[139.4570812458029,36.01188550501212],[139.4397112190976,36.013373613201736],[139.43546347645838,36.02160055911855],[139.4179684700689,36.035586414481486],[139.41986297020003,36.04841502763145],[139.4161880030739,36.0546836404377],[139.42159335934616,36.06964335995315],[139.40845805399601,36.076115306776046],[139.41279869030734,36.09023697325779],[139.39484814582534,36.10122977513407],[139.387150052533,36.101768108411534]]]},"properties":{"N03_001":"埼玉県","N03_002":null,"N03_003":null,"N03_004":"東松山市","N03_007":"11212"}}]}