{"type":"FeatureCollection","features":[{"type":"Feature","geometry":{"type":"Polygon","coordinates":[[[139.1762007260827,35.997730414327236],[139.1902068872381,36.006095946670655],[139.1857427767078,36.02492425195271],[139.1993986384365,36.029522613278004],[139.22987652408233,36.05324955902],[139.22546766520065,36.05911094621325],[139.19769600506663,36.068694505047404],[139.1900418292671,36.06924727963832],[139.17371883375722,36.08535280199027],[139.15747827550206,36.09258694673025],[139.15151269825253,36.08838361351303],[139.15578824972806,36.0827402795403],[139.15939007858935,36.05886780190758],[139.15594061017111,36.053261413883206],[139.15686219223642,36.03182783828419],[139.15274466963092,36.026891198769874],[139.16710572035277,36.00575900037762],[139.1762007260827,35.997730414327236]]]},"properties":{"N03_001":"埼玉県","N03_002":null,"N03_003":"秩父郡","N03_004":"東秩父村","N03_007":"11369"}}]}