{"type":"FeatureCollection","features":[{"type":"Feature","geometry":{"type":"Polygon","coordinates":[[[139.8024341630063,35.94142791966283],[139.81825085639196,35.93175900077733],[139.80507603123397,35.92363458656695],[139.80748238770207,35.91664153208109],[139.81987380083535,35.914513468122095],[139.82322905357807,35.908642360156875],[139.83727744509804,35.906136802171716],[139.84697027246023,35.911048441432456],[139.8371439695186,35.92703317134385],[139.8492910251607,35.9383484143479],[139.83777330699263,35.95390591952264],[139.8333314142135,35.96896702770624],[139.82068050620046,35.9659673336256],[139.8024341630063,35.94142791966283]]]},"properties":{"N03_001":"埼玉県","N03_002":null,"N03_003":"北葛飾郡","N03_004":"松伏町","N03_007":"11465"}}]}