{"type":"FeatureCollection","features":[{"type":"Feature","geometry":{"type":"Polygon","coordinates":[[[139.57647263350532,35.87145997289946],[139.5851390016636,35.86050194600807],[139.60739922239623,35.834763387720216],[139.61656852112037,35.83399472097966],[139.63591869039533,35.8410123602323],[139.63316600500718,35.85138489249886],[139.6362904674312,35.86037527919581],[139.61883119380457,35.86913717154329],[139.6098603376845,35.884916387481326],[139.6042746169801,35.88860835988794],[139.6036774716381,35.88755058629056],[139.597803722364,35.88061453263464],[139.5727337479642,35.88035417170772],[139.57647263350532,35.87145997289946]]]},"properties":{"N03_001":"埼玉県","N03_002":null,"N03_003":"さいたま市","N03_004":"桜区","N03_007":"11106"}}]}