{"type":"FeatureCollection","features":[{"type":"Feature","geometry":{"type":"Polygon","coordinates":[[[139.56430814540465,36.03549905433795],[139.55643527966447,36.029186532132826],[139.559177173188,36.01842155910771],[139.55284630481322,36.01458346845237],[139.52316197104824,36.01180144088386],[139.5077746436849,35.99601677505416],[139.51239489001227,35.983974333049105],[139.52294791261613,35.96797550536536],[139.5348431913602,35.9607141714219],[139.53492461777694,35.96895772152169],[139.5417016344229,35.97695325209094],[139.5390350321411,35.992512360756905],[139.56401897559533,35.987862720987835],[139.57387408651994,35.997798000177625],[139.57361608361543,36.00862241389336],[139.590808366513,36.008662198102],[139.59561710804314,36.027236360369784],[139.5881909733348,36.02889466705528],[139.57077260717017,36.0356257481298],[139.57035736769842,36.040518802001145],[139.56430814540465,36.03549905433795]]]},"properties":{"N03_001":"埼玉県","N03_002":null,"N03_003":null,"N03_004":"桶川市","N03_007":"11231"}}]}