{"type":"FeatureCollection","features":[{"type":"Feature","geometry":{"type":"Polygon","coordinates":[[[139.10276163454182,35.927224694564075],[139.11674474697259,35.9308133330689],[139.14380763971087,35.94206833318708],[139.16805747107549,35.949636108419725],[139.17861477355302,35.969734667420994],[139.17018511055448,35.98611961362934],[139.17460871651906,35.98904572158284],[139.1587187166955,35.99480846843613],[139.12602033746862,36.00113541396826],[139.11503919620202,35.99906986548194],[139.1063722830545,36.00890619856227],[139.09453163452736,35.997597333550175],[139.08710316517897,35.975504360637785],[139.08854703032125,35.965653279575236],[139.09706367125148,35.95253717115355],[139.09547885896222,35.93592689261203],[139.10276163454182,35.927224694564075]]]},"properties":{"N03_001":"埼玉県","N03_002":null,"N03_003":"秩父郡","N03_004":"横瀬町","N03_007":"11361"}}]}