{"type":"FeatureCollection","features":[{"type":"Feature","geometry":{"type":"Polygon","coordinates":[[[139.27718939017825,35.900558721208085],[139.3084011154192,35.908683387228564],[139.30962391730998,35.9154586672837],[139.32752620057374,35.92309753212544],[139.32396066115564,35.92886725232188],[139.3340265246045,35.93594419826621],[139.34331766527805,35.931268081556766],[139.347488249683,35.94104805412445],[139.3583355250645,35.952470802085884],[139.3488844489582,35.968838000173605],[139.3393908043422,35.96232774852683],[139.32137299596707,35.96558027890677],[139.31543574646264,35.962738613696104],[139.31021985756047,35.95009558644222],[139.30025428021088,35.944916973539534],[139.2756845536993,35.95129363988963],[139.2613503117675,35.933893946348576],[139.2632691700362,35.924201198126866],[139.27310525310497,35.91289702757581],[139.27718939017825,35.900558721208085]]]},"properties":{"N03_001":"埼玉県","N03_002":null,"N03_003":"入間郡","N03_004":"毛呂山町","N03_007":"11326"}}]}