{"type":"FeatureCollection","features":[{"type":"Feature","geometry":{"type":"Polygon","coordinates":[[[139.635923555102,35.8891892522158],[139.6401962778961,35.8581054145322],[139.65898749697544,35.8470401354939],[139.66696963663946,35.852563224713094],[139.6663446689713,35.861316279422795],[139.66840350221992,35.88343136036906],[139.66089625226027,35.893827108634184],[139.64830808005388,35.9014811351463],[139.6472577563873,35.88983227963604],[139.635923555102,35.8891892522158]]]},"properties":{"N03_001":"埼玉県","N03_002":null,"N03_003":"さいたま市","N03_004":"浦和区","N03_007":"11107"}}]}