{"type":"FeatureCollection","features":[{"type":"Feature","geometry":{"type":"Polygon","coordinates":[[[139.3278803374077,36.239876387085644],[139.31514871614036,36.23661402711571],[139.29497880762597,36.24358661303182],[139.26681518877,36.25042058644095],[139.24374871682983,36.24451113498094],[139.24760481281191,36.23251058609475],[139.24163503213106,36.22419613524352],[139.2189077826681,36.228265865177605],[139.19672547380162,36.216026135297966],[139.19409766557487,36.20824308125327],[139.19689260740802,36.197450306586404],[139.20863708243542,36.19509836000134],[139.20390092159028,36.18420002740942],[139.1902433592437,36.17666835995692],[139.22046805425737,36.159033667269966],[139.23270224431315,36.15701977494274],[139.20543380072934,36.14210061305289],[139.2009174198031,36.13687669410422],[139.2165384953554,36.127679225016266],[139.21679900107313,36.11910755906666],[139.27304352813633,36.11925038759534],[139.27568625251865,36.10621872101723],[139.28817374831988,36.10669010876154],[139.30122433213728,36.110350666949785],[139.31133438467418,36.11696344130979],[139.3121166932309,36.13836841397119],[139.31481175096155,36.146553134919316],[139.29327763925176,36.16174786527182],[139.29606600524198,36.16682561291174],[139.31251442380164,36.17787977553127],[139.31785771696013,36.17421227907346],[139.3321900523291,36.18532394614323],[139.33645050598614,36.21762638714807],[139.33550391737197,36.232744720992116],[139.3278803374077,36.239876387085644]]]},"properties":{"N03_001":"埼玉県","N03_002":null,"N03_003":null,"N03_004":"深谷市","N03_007":"11218"}}]}