{"type":"FeatureCollection","features":[{"type":"Feature","geometry":{"type":"Polygon","coordinates":[[[139.32091260783068,36.09055680275429],[139.3314231653469,36.081783198535845],[139.3259650323604,36.066860694765296],[139.33673169970825,36.062189586380384],[139.33364046723386,36.05371055959472],[139.34099917077515,36.048234306168354],[139.33114771739326,36.04126710809061],[139.36794752315973,36.03659372172291],[139.37424199777,36.04203372167899],[139.38571897575025,36.04132369433307],[139.3847612193548,36.05252619832544],[139.37864457848457,36.06400869454569],[139.38042330709004,36.08729841419051],[139.387150052533,36.101768108411534],[139.37586306173102,36.099253973592056],[139.34388883370275,36.10361705428369],[139.34222961150738,36.08998538701604],[139.32091260783068,36.09055680275429]]]},"properties":{"N03_001":"埼玉県","N03_002":null,"N03_003":"比企郡","N03_004":"滑川町","N03_007":"11341"}}]}