{"type":"FeatureCollection","features":[{"type":"Feature","geometry":{"type":"Polygon","coordinates":[[[139.44420464302993,36.19678969428901],[139.4190718941527,36.21644525264634],[139.3934315823018,36.22762413504586],[139.37667299656164,36.24450494674596],[139.35823299605602,36.25332800018714],[139.3278803374077,36.239876387085644],[139.33550391737197,36.232744720992116],[139.33645050598614,36.21762638714807],[139.3321900523291,36.18532394614323],[139.31785771696013,36.17421227907346],[139.31251442380164,36.17787977553127],[139.29606600524198,36.16682561291174],[139.29327763925176,36.16174786527182],[139.31481175096155,36.146553134919316],[139.3121166932309,36.13836841397119],[139.31133438467418,36.11696344130979],[139.30122433213728,36.110350666949785],[139.30923294424508,36.10522594592072],[139.32091260783068,36.09055680275429],[139.34222961150738,36.08998538701604],[139.34388883370275,36.10361705428369],[139.37586306173102,36.099253973592056],[139.387150052533,36.101768108411534],[139.39484814582534,36.10122977513407],[139.41279869030734,36.09023697325779],[139.40845805399601,36.076115306776046],[139.42159335934616,36.06964335995315],[139.44543655055645,36.08054164038447],[139.4466198830013,36.083588027265705],[139.43294766530255,36.092625837912124],[139.4317783011278,36.11069083821167],[139.43114007835197,36.13161336056817],[139.42268119368225,36.13872974807947],[139.4223837483114,36.147613081278735],[139.433580441784,36.14720725231291],[139.43205438400264,36.15863364072999],[139.4350275238013,36.17038610803252],[139.42149416322513,36.171470000640056],[139.41890063625544,36.18944138691052],[139.42306958569293,36.19763472156518],[139.44420464302993,36.19678969428901]]]},"properties":{"N03_001":"埼玉県","N03_002":null,"N03_003":null,"N03_004":"熊谷市","N03_007":"11202"}}]}