{"type":"FeatureCollection","features":[{"type":"Feature","geometry":{"type":"Polygon","coordinates":[[[139.40155097379852,35.89566974846019],[139.38807061027046,35.882423946108304],[139.3894533592852,35.87570172155728],[139.3747152534063,35.86836119871043],[139.3608888073726,35.8593795327393],[139.36405121938833,35.84223205406607],[139.37234988354032,35.84899761334924],[139.38963269849035,35.85263508144391],[139.39401014315365,35.84167010818902],[139.40743457874282,35.84029955937723],[139.4194633591468,35.817828468309244],[139.43264450114293,35.821527081309796],[139.4497940347669,35.83057069438212],[139.46337330753215,35.843601225116515],[139.4760541377883,35.8399256671359],[139.45878061013707,35.85904480237576],[139.46578900166116,35.86707672131371],[139.46200072625254,35.87786144165227],[139.45397763955646,35.876157000645094],[139.44130072674716,35.884886171159906],[139.41170600502812,35.90091058635454],[139.40155097379852,35.89566974846019]]]},"properties":{"N03_001":"埼玉県","N03_002":null,"N03_003":null,"N03_004":"狭山市","N03_007":"11215"}}]}