{"type":"FeatureCollection","features":[{"type":"Feature","geometry":{"type":"Polygon","coordinates":[[[139.70785730267244,35.99530541401367],[139.71377406022475,36.004847919695806],[139.7053890530624,36.011957332964585],[139.70970966327036,36.01945150498301],[139.7044910512211,36.02583983823797],[139.68991939006787,36.02840953227417],[139.68371333320385,36.04208480227186],[139.65932693978652,36.048844505169825],[139.6606893902033,36.040286999945124],[139.65145544731115,36.03814283812153],[139.6201662265902,36.044746387236046],[139.60642644642348,36.04535694596632],[139.60424194640882,36.03678691948079],[139.62632280275523,36.02766446824069],[139.63188422827454,36.03118586533549],[139.64864955982944,36.031339775310414],[139.65046610942352,36.01040227924187],[139.66203808009334,36.012000919506875],[139.67576805405247,35.9990640001036],[139.68703949467704,36.00411927908152],[139.69196810684275,35.99903372172895],[139.70785730267244,35.99530541401367]]]},"properties":{"N03_001":"埼玉県","N03_002":null,"N03_003":null,"N03_004":"白岡市","N03_007":"11246"}}]}