{"type":"FeatureCollection","features":[{"type":"Feature","geometry":{"type":"Polygon","coordinates":[[[139.15274466963092,36.026891198769874],[139.15686219223642,36.03182783828419],[139.15594061017111,36.053261413883206],[139.15939007858935,36.05886780190758],[139.15578824972806,36.0827402795403],[139.15151269825253,36.08838361351303],[139.13928464337164,36.090765802499845],[139.1099328923891,36.08731991967858],[139.09309481197602,36.09101597320864],[139.08577538362715,36.10243177570595],[139.08663878135474,36.11448069462841],[139.08254878160108,36.121630414612014],[139.07124291852597,36.11891066689384],[139.05684372216012,36.12619677536094],[139.0449353313005,36.11619089219596],[139.04329335900138,36.107455865296004],[139.03434136256385,36.100542225443405],[139.00776072677616,36.0974605050983],[139.00390014317713,36.087936865394056],[139.01427461708,36.08510491915672],[139.01990961163938,36.07801544115972],[139.0352029445603,36.07001741407248],[139.04412880759844,36.0744232791111],[139.05524411242595,36.072732225411926],[139.05767878135077,36.059862225461416],[139.08441192057376,36.06607122490715],[139.09566635501835,36.057724333711064],[139.1078474976639,36.05987046864726],[139.11529333382032,36.0557291086115],[139.118517717219,36.04269944122626],[139.12447297025142,36.03535253229359],[139.15274466963092,36.026891198769874]]]},"properties":{"N03_001":"埼玉県","N03_002":null,"N03_003":"秩父郡","N03_004":"皆野町","N03_007":"11362"}}]}