{"type":"FeatureCollection","features":[{"type":"Feature","geometry":{"type":"Polygon","coordinates":[[[139.00776072677616,36.0974605050983],[139.03434136256385,36.100542225443405],[139.04329335900138,36.107455865296004],[139.0449353313005,36.11619089219596],[139.05684372216012,36.12619677536094],[139.0668896377466,36.1431123602473],[139.06759608309278,36.16207130644568],[139.07632194680048,36.16162686508778],[139.07541533125254,36.17686077530459],[139.09650377403,36.19357777549402],[139.11037466905577,36.199226107898596],[139.10920661519322,36.20722808121104],[139.12787221872793,36.20685919819351],[139.13594369614475,36.221254748707736],[139.11918308782936,36.218922252659866],[139.11042338533105,36.235621413897206],[139.09651474755765,36.23824783806731],[139.0817260053509,36.214887252744575],[139.0633228275865,36.19571219855919],[139.0630494687581,36.18581050545049],[139.05638583773634,36.180519667049055],[139.0605613099566,36.15226322556748],[139.042722088054,36.14802736027451],[139.0424042541531,36.12845953258142],[139.03119783451257,36.12772700060066],[139.01562194629582,36.134069252593974],[139.00195800325935,36.12532950515259],[138.99304241227753,36.12446477552902],[138.9856907000658,36.11557141398964],[138.97649289283277,36.11721058669929],[138.99324289274534,36.09529522539441],[139.00776072677616,36.0974605050983]]]},"properties":{"N03_001":"埼玉県","N03_002":null,"N03_003":"児玉郡","N03_004":"神川町","N03_007":"11383"}}]}