{"type":"FeatureCollection","features":[{"type":"Feature","geometry":{"type":"Polygon","coordinates":[[[138.97649289283277,36.11721058669929],[138.97001204901687,36.1242389737497],[138.95845228304654,36.124090359882246],[138.95655335915023,36.10570200024716],[138.9447952530985,36.09448866751802],[138.93107632910937,36.088119532090786],[138.93341019572404,36.078825054033075],[138.95485494270156,36.0597530270806],[138.97250469543542,36.05316322500289],[138.96932518820688,36.043281558896865],[138.98405272435377,36.03434397319586],[139.0093474977889,36.027867170933234],[139.02413858632679,36.01599313507518],[139.0380600007685,36.02051825201579],[139.05022693952174,36.01929419826871],[139.05099050620697,36.00931674806952],[139.04078267218267,36.001718946272376],[139.05048985722124,35.991997973727564],[139.04355199772658,35.979238558912414],[139.02887413743156,35.969048559343605],[139.0126179777376,35.96661266734077],[139.00840472140078,35.979683135168614],[138.9929874457141,35.97617955903945],[138.9815921666452,35.982910918903826],[138.97392269877355,35.979100667661726],[138.95814847047563,35.97964905446037],[138.95081172568064,35.969878865617204],[138.93972639435765,35.966805586308794],[138.9270205584521,35.97013144111315],[138.91832858659507,35.96810397351959],[138.89869552567802,35.97542146832615],[138.87879632928718,35.97505677525004],[138.85686941619065,35.98677564028361],[138.84107477328223,36.00056255931469],[138.83821608300593,36.018537532081496],[138.84179280279568,36.03047583798957],[138.828394721839,36.037302532286105],[138.80219063668858,36.0334022795916],[138.79097552510052,36.029399802758746],[138.78063219202215,36.03685066702474],[138.76914131052308,36.0388126136113],[138.75441119332197,36.03452597349491],[138.74376983121283,36.01009989209638],[138.73216802913134,35.99833213541979],[138.71680902771448,35.99290438692799],[138.71191138820006,35.97916830657215],[138.7141837483814,35.96551525252693],[138.7255997802058,35.957611108365995],[138.7311354995038,35.945145279031465],[138.73925433252145,35.93910805459308],[138.7385070039951,35.929019198177514],[138.72910683581188,35.91722810859039],[138.72888878169204,35.90972700010104],[138.74910697840437,35.901607532161904],[138.777155253812,35.90041917160755],[138.78911505801364,35.89324166706933],[138.79697033751108,35.87213000019938],[138.80840488997376,35.87001953237558],[138.81360486447295,35.86236777575232],[138.84544869080446,35.86739086529627],[138.85662841856674,35.86461638753633],[138.8588111676014,35.857574441407394],[138.86943150535978,35.857249171012484],[138.8797026336697,35.84692246819742],[138.89203849568014,35.839845252456485],[138.91094608339506,35.852727467898376],[138.92637613575016,35.848918279654924],[138.94393341119803,35.854818802645696],[138.94286758866838,35.86016213537431],[138.95439461751766,35.87417853261326],[138.97892778209155,35.88501069398836],[138.9852588851894,35.88118486558915],[139.0007628024614,35.884000414487616],[139.0105478867756,35.89709983868664],[139.02356044096166,35.897358441438996],[139.04984208814187,35.87883291900408],[139.0725529447626,35.87172380251155],[139.08253938998098,35.87487299988908],[139.1002819203744,35.86718874806235],[139.10811594079814,35.87273269435843],[139.11057671973992,35.88206666704309],[139.1208090530954,35.895363639920106],[139.11196325669903,35.90783638773917],[139.11249719858688,35.919775000316065],[139.10276163454182,35.927224694564075],[139.09547885896222,35.93592689261203],[139.09706367125148,35.95253717115355],[139.08854703032125,35.965653279575236],[139.08710316517897,35.975504360637785],[139.09453163452736,35.997597333550175],[139.1063722830545,36.00890619856227],[139.11503919620202,35.99906986548194],[139.12602033746862,36.00113541396826],[139.1587187166955,35.99480846843613],[139.17460871651906,35.98904572158284],[139.1762007260827,35.997730414327236],[139.16710572035277,36.00575900037762],[139.15274466963092,36.026891198769874],[139.12447297025142,36.03535253229359],[139.118517717219,36.04269944122626],[139.11529333382032,36.0557291086115],[139.1078474976639,36.05987046864726],[139.09566635501835,36.057724333711064],[139.08441192057376,36.06607122490715],[139.05767878135077,36.059862225461416],[139.05524411242595,36.072732225411926],[139.04412880759844,36.0744232791111],[139.0352029445603,36.07001741407248],[139.01990961163938,36.07801544115972],[139.01427461708,36.08510491915672],[139.00390014317713,36.087936865394056],[139.00776072677616,36.0974605050983],[138.99324289274534,36.09529522539441],[138.97649289283277,36.11721058669929]]]},"properties":{"N03_001":"埼玉県","N03_002":null,"N03_003":null,"N03_004":"秩父市","N03_007":"11207"}}]}