{"type":"FeatureCollection","features":[{"type":"Feature","geometry":{"type":"Polygon","coordinates":[[[139.66089625226027,35.893827108634184],[139.66840350221992,35.88343136036906],[139.6663446689713,35.861316279422795],[139.67850046782235,35.866778586162866],[139.69462416367423,35.863396000325224],[139.69805719878082,35.85740317091967],[139.70410863880272,35.86231566723433],[139.7178625554127,35.86229289190351],[139.7202145532591,35.87031591924432],[139.71354428074403,35.87671369448145],[139.7408082753817,35.87630283830538],[139.74336055854303,35.88593669442298],[139.73102224408137,35.89895917172845],[139.7176702722653,35.90888441448419],[139.70042080417682,35.915710532315245],[139.69266949440168,35.911781919500015],[139.70087102547745,35.89889386565943],[139.68896766542548,35.89561072145767],[139.6696603893156,35.896892946052674],[139.66089625226027,35.893827108634184]]]},"properties":{"N03_001":"埼玉県","N03_002":null,"N03_003":"さいたま市","N03_004":"緑区","N03_007":"11109"}}]}