{"type":"FeatureCollection","features":[{"type":"Feature","geometry":{"type":"Polygon","coordinates":[[[139.1366615305053,36.145659694439416],[139.15370072630753,36.141622224985724],[139.16061985742056,36.13497250557674],[139.1767415306972,36.13481058623961],[139.19285241210923,36.144415306121516],[139.19774136237402,36.15904836039357],[139.1902433592437,36.17666835995692],[139.20390092159028,36.18420002740942],[139.20863708243542,36.19509836000134],[139.19689260740802,36.197450306586404],[139.19409766557487,36.20824308125327],[139.17189289254304,36.21054753194312],[139.1630062003759,36.20522113524726],[139.16064978056295,36.19510253195631],[139.15242555149803,36.18236610830928],[139.15448496840668,36.176280279111666],[139.14288380034714,36.16416638776866],[139.14650516248332,36.15298610872202],[139.1366615305053,36.145659694439416]]]},"properties":{"N03_001":"埼玉県","N03_002":null,"N03_003":"児玉郡","N03_004":"美里町","N03_007":"11381"}}]}