{"type":"FeatureCollection","features":[{"type":"Feature","geometry":{"type":"Polygon","coordinates":[[[139.52442522714261,36.13821617133931],[139.5631534500717,36.136773694750275],[139.57281686150907,36.14299289250806],[139.57262403427183,36.15016044155118],[139.58630389171128,36.1504551080169],[139.58961481237372,36.16411569388424],[139.60709871663255,36.15927233295184],[139.61310325611043,36.171464838531506],[139.6030366156474,36.18617122532186],[139.6098836067431,36.19680813488759],[139.6037864200074,36.2034153604306],[139.58777167342407,36.21036927911899],[139.5734652277381,36.2042201709242],[139.5547379127246,36.2008285325108],[139.53521861244906,36.192942891901],[139.52116966334938,36.19122036013158],[139.4955167834728,36.192578640392014],[139.5016762005962,36.18274617169851],[139.48803747095258,36.17293836061691],[139.4976430227074,36.162272279741956],[139.49819883340945,36.1556547479683],[139.5118155251664,36.15420838720735],[139.51632297042886,36.138119468138996],[139.52442522714261,36.13821617133931]]]},"properties":{"N03_001":"埼玉県","N03_002":null,"N03_003":null,"N03_004":"羽生市","N03_007":"11216"}}]}