{"type":"FeatureCollection","features":[{"type":"Feature","geometry":{"type":"Polygon","coordinates":[[[139.76761494227583,35.81768400031643],[139.77923433239857,35.808248721701204],[139.7924310254715,35.805290918940784],[139.81329775658628,35.8083208922954],[139.82105561612389,35.81507700060314],[139.81295780835626,35.81558644136123],[139.83058328119353,35.835542775278896],[139.82874927395994,35.85722466718471],[139.84085791236282,35.855851892550845],[139.83978099939372,35.85943046854135],[139.83992717340038,35.870003532537055],[139.81842655064486,35.86906908117322],[139.80715503267868,35.855889414065246],[139.78712250370063,35.86102750531518],[139.7795596891284,35.85872946859013],[139.76985108945632,35.86631419874135],[139.76360577268838,35.863375613593746],[139.77133708244048,35.84848422546668],[139.77866542217157,35.84216310844073],[139.7790742539737,35.83306480219892],[139.78828725075607,35.82467369403582],[139.76761494227583,35.81768400031643]]]},"properties":{"N03_001":"埼玉県","N03_002":null,"N03_003":null,"N03_004":"草加市","N03_007":"11221"}}]}