{"type":"FeatureCollection","features":[{"type":"Feature","geometry":{"type":"Polygon","coordinates":[[[139.65787975434728,35.96394150549611],[139.66607900114502,35.975600108758044],[139.68434380022632,35.97560958671312],[139.69560141467366,35.991082613172125],[139.69196810684275,35.99903372172895],[139.68703949467704,36.00411927908152],[139.67576805405247,35.9990640001036],[139.66203808009334,36.012000919506875],[139.65046610942352,36.01040227924187],[139.64864955982944,36.031339775310414],[139.63188422827454,36.03118586533549],[139.62632280275523,36.02766446824069],[139.60424194640882,36.03678691948079],[139.5881909733348,36.02889466705528],[139.59561710804314,36.027236360369784],[139.6116468616134,36.02119777525718],[139.62228516243033,36.00928336073855],[139.63507686110836,36.00621533347089],[139.64480902751473,35.99367894602659],[139.6422394422965,35.96969786536425],[139.64887608376432,35.96222261328302],[139.65787975434728,35.96394150549611]]]},"properties":{"N03_001":"埼玉県","N03_002":null,"N03_003":null,"N03_004":"蓮田市","N03_007":"11238"}}]}