{"type":"FeatureCollection","features":[{"type":"Feature","geometry":{"type":"Polygon","coordinates":[[[139.4317783011278,36.11069083821167],[139.44121228381994,36.11742222505569],[139.4585203634241,36.11161944128423],[139.4659815051424,36.11279441453064],[139.47918511040461,36.10349830600205],[139.48770286649415,36.09152161343178],[139.4934890011166,36.09191633307239],[139.50250522713463,36.10382080198849],[139.49678108907608,36.11168580225802],[139.5061133593441,36.115275000141196],[139.51043007818566,36.12467527894103],[139.5309412452424,36.11767138762451],[139.535539663225,36.12662030658191],[139.52442522714261,36.13821617133931],[139.51632297042886,36.138119468138996],[139.5118155251664,36.15420838720735],[139.49819883340945,36.1556547479683],[139.4976430227074,36.162272279741956],[139.48803747095258,36.17293836061691],[139.5016762005962,36.18274617169851],[139.4955167834728,36.192578640392014],[139.47442500600926,36.189457505459586],[139.45434856043778,36.19141027896126],[139.44420464302993,36.19678969428901],[139.42306958569293,36.19763472156518],[139.41890063625544,36.18944138691052],[139.42149416322513,36.171470000640056],[139.4350275238013,36.17038610803252],[139.43205438400264,36.15863364072999],[139.433580441784,36.14720725231291],[139.4223837483114,36.147613081278735],[139.42268119368225,36.13872974807947],[139.43114007835197,36.13161336056817],[139.4317783011278,36.11069083821167]]]},"properties":{"N03_001":"埼玉県","N03_002":null,"N03_003":null,"N03_004":"行田市","N03_007":"11206"}}]}