{"type":"FeatureCollection","features":[{"type":"Feature","geometry":{"type":"Polygon","coordinates":[[[139.5477583921362,35.934202305891745],[139.54619111572742,35.921913171755534],[139.55491243875815,35.90368489234396],[139.54946652396097,35.88723105446962],[139.559567612955,35.880549667233424],[139.55890620026105,35.87410441408747],[139.57647263350532,35.87145997289946],[139.5727337479642,35.88035417170772],[139.597803722364,35.88061453263464],[139.6036774716381,35.88755058629056],[139.59731055843554,35.891019667124],[139.59724177738622,35.91501402717569],[139.59727077872355,35.93663286491483],[139.5863966414919,35.94577644122984],[139.57494075261366,35.94412394596338],[139.55667455328808,35.935380360215504],[139.5477583921362,35.934202305891745]]]},"properties":{"N03_001":"埼玉県","N03_002":null,"N03_003":"さいたま市","N03_004":"西区","N03_007":"11101"}}]}