{"type":"FeatureCollection","features":[{"type":"Feature","geometry":{"type":"Polygon","coordinates":[[[139.6416317775845,35.92424689268],[139.6478153576927,35.91225269390674],[139.64830808005388,35.9014811351463],[139.66089625226027,35.893827108634184],[139.6696603893156,35.896892946052674],[139.68896766542548,35.89561072145767],[139.70087102547745,35.89889386565943],[139.69266949440168,35.911781919500015],[139.70042080417682,35.915710532315245],[139.69079719853198,35.930382694505795],[139.6846019200426,35.93303546791259],[139.68208919625943,35.94950044119247],[139.66952644608864,35.96358153206211],[139.65787975434728,35.96394150549611],[139.64887608376432,35.96222261328302],[139.6452896117263,35.95136261339394],[139.6369940601278,35.95518313489379],[139.6257003891617,35.95241425271564],[139.6424360574781,35.93924961327906],[139.6416317775845,35.92424689268]]]},"properties":{"N03_001":"埼玉県","N03_002":null,"N03_003":"さいたま市","N03_004":"見沼区","N03_007":"11104"}}]}