{"type":"FeatureCollection","features":[{"type":"Feature","geometry":{"type":"Polygon","coordinates":[[[139.2632691700362,35.924201198126866],[139.2613503117675,35.933893946348576],[139.2756845536993,35.95129363988963],[139.30025428021088,35.944916973539534],[139.31021985756047,35.95009558644222],[139.31543574646264,35.962738613696104],[139.32137299596707,35.96558027890677],[139.301253864974,35.985277197984374],[139.2881971729612,35.99125330629511],[139.27171408643596,35.98491858612391],[139.2598596117317,35.98644497305713],[139.2305907000009,35.9745283066361],[139.2129270041779,35.956444171461385],[139.22812280202572,35.94565280243495],[139.23686666746278,35.93024255944664],[139.25335972836888,35.92210313555131],[139.2632691700362,35.924201198126866]]]},"properties":{"N03_001":"埼玉県","N03_002":null,"N03_003":"入間郡","N03_004":"越生町","N03_007":"11327"}}]}