{"type":"FeatureCollection","features":[{"type":"Feature","geometry":{"type":"Polygon","coordinates":[[[139.7522888857236,35.88029280197128],[139.76985108945632,35.86631419874135],[139.7795596891284,35.85872946859013],[139.78712250370063,35.86102750531518],[139.80715503267868,35.855889414065246],[139.81842655064486,35.86906908117322],[139.83992717340038,35.870003532537055],[139.83863542228698,35.893898468039936],[139.82861678313805,35.89804986540901],[139.83727744509804,35.906136802171716],[139.82322905357807,35.908642360156875],[139.81987380083535,35.914513468122095],[139.80748238770207,35.91664153208109],[139.80507603123397,35.92363458656695],[139.81825085639196,35.93175900077733],[139.8024341630063,35.94142791966283],[139.78695389160885,35.95507294635945],[139.7760988074141,35.947750171633174],[139.7792090533552,35.938107667634824],[139.76558581183576,35.93552202771946],[139.75194586361079,35.94052853196621],[139.754275305561,35.93545769471689],[139.7451226721737,35.91749300030176],[139.75450905374987,35.910482171615],[139.7534767444563,35.895784135029885],[139.74523810645348,35.89372250488975],[139.7522888857236,35.88029280197128]]]},"properties":{"N03_001":"埼玉県","N03_002":null,"N03_003":null,"N03_004":"越谷市","N03_007":"11222"}}]}