{"type":"FeatureCollection","features":[{"type":"Feature","geometry":{"type":"Polygon","coordinates":[[[139.08254878160108,36.121630414612014],[139.08663878135474,36.11448069462841],[139.08577538362715,36.10243177570595],[139.09309481197602,36.09101597320864],[139.1099328923891,36.08731991967858],[139.13928464337164,36.090765802499845],[139.13966641996933,36.113437748153615],[139.1481753833873,36.13314941431406],[139.16061985742056,36.13497250557674],[139.15370072630753,36.141622224985724],[139.1366615305053,36.145659694439416],[139.1265323349993,36.14834886520799],[139.11525425468017,36.14312550563761],[139.10597116743554,36.143707170949256],[139.0880268876308,36.13148294628098],[139.08254878160108,36.121630414612014]]]},"properties":{"N03_001":"埼玉県","N03_002":null,"N03_003":"秩父郡","N03_004":"長瀞町","N03_007":"11363"}}]}