{"type":"FeatureCollection","features":[{"type":"Feature","geometry":{"type":"Polygon","coordinates":[[[139.1002819203744,35.86718874806235],[139.11173416340102,35.864680278971775],[139.13536063598463,35.86538700040978],[139.1594006618111,35.85706510856795],[139.1632470568063,35.8509703877732],[139.19244150557108,35.84027153200566],[139.21264936457658,35.846611279387105],[139.2325348903729,35.836636000151316],[139.2522554733115,35.83824905475012],[139.26050435818968,35.83600127933562],[139.28184577216473,35.83951961333952],[139.3011685606806,35.83495989228527],[139.30259182954933,35.82405017157822],[139.31610600578756,35.81876600075037],[139.3263391053655,35.82643069412131],[139.34547888544228,35.82765791977721],[139.34472345042695,35.8499889998925],[139.35016849557962,35.858982613357],[139.3608888073726,35.8593795327393],[139.3747152534063,35.86836119871043],[139.3461827506335,35.88059119792547],[139.33471522722607,35.878372306037136],[139.327597173271,35.882545640568935],[139.296069830958,35.868490666910816],[139.2823484446251,35.86992791933807],[139.27544649865706,35.87470402716917],[139.27918569446433,35.88256205409556],[139.27718939017825,35.900558721208085],[139.27310525310497,35.91289702757581],[139.2632691700362,35.924201198126866],[139.25335972836888,35.92210313555131],[139.23686666746278,35.93024255944664],[139.22812280202572,35.94565280243495],[139.2129270041779,35.956444171461385],[139.20153119360975,35.9657708020809],[139.17861477355302,35.969734667420994],[139.16805747107549,35.949636108419725],[139.14380763971087,35.94206833318708],[139.11674474697259,35.9308133330689],[139.10276163454182,35.927224694564075],[139.11249719858688,35.919775000316065],[139.11196325669903,35.90783638773917],[139.1208090530954,35.895363639920106],[139.11057671973992,35.88206666704309],[139.10811594079814,35.87273269435843],[139.1002819203744,35.86718874806235]]]},"properties":{"N03_001":"埼玉県","N03_002":null,"N03_003":null,"N03_004":"飯能市","N03_007":"11209"}}]}