{"type":"FeatureCollection","features":[{"type":"Feature","geometry":{"type":"Polygon","coordinates":[[[139.34272347600768,36.00900853241791],[139.33554732854645,36.00661435996477],[139.316601479175,36.00910272111372],[139.29057302262697,35.99836274834223],[139.2881971729612,35.99125330629511],[139.301253864974,35.985277197984374],[139.32137299596707,35.96558027890677],[139.3393908043422,35.96232774852683],[139.3488844489582,35.968838000173605],[139.35857783479935,35.97659744161871],[139.37936236158373,35.981605441438035],[139.36904878167604,35.996241279111814],[139.34272347600768,36.00900853241791]]]},"properties":{"N03_001":"埼玉県","N03_002":null,"N03_003":"比企郡","N03_004":"鳩山町","N03_007":"11348"}}]}