{"type":"FeatureCollection","features":[{"type":"Feature","geometry":{"type":"Polygon","coordinates":[[[139.4466198830013,36.083588027265705],[139.45605686133513,36.079834667136254],[139.47281875568115,36.060376865200226],[139.4830396109893,36.05905822525693],[139.49429644662382,36.035066748431746],[139.52272267201374,36.03603646850826],[139.5205810516743,36.0475795592493],[139.53295557733804,36.05158374839135],[139.54636588817527,36.04415986558536],[139.55347452712783,36.044398505186905],[139.56430814540465,36.03549905433795],[139.57035736769842,36.040518802001145],[139.5621931917625,36.04793377522361],[139.56519771700107,36.05729408095715],[139.55957089548053,36.07177297344401],[139.55303819765481,36.07920100032595],[139.54001000066103,36.08187097326686],[139.55116791266914,36.10067500045096],[139.53782233503284,36.105756107958086],[139.5309412452424,36.11767138762451],[139.51043007818566,36.12467527894103],[139.5061133593441,36.115275000141196],[139.49678108907608,36.11168580225802],[139.50250522713463,36.10382080198849],[139.4934890011166,36.09191633307239],[139.48770286649415,36.09152161343178],[139.47918511040461,36.10349830600205],[139.4659815051424,36.11279441453064],[139.4585203634241,36.11161944128423],[139.44121228381994,36.11742222505569],[139.4317783011278,36.11069083821167],[139.43294766530255,36.092625837912124],[139.4466198830013,36.083588027265705]]]},"properties":{"N03_001":"埼玉県","N03_002":null,"N03_003":null,"N03_004":"鴻巣市","N03_007":"11217"}}]}