{"type":"FeatureCollection","features":[{"type":"Feature","geometry":{"type":"Polygon","coordinates":[[[139.42146041526598,35.95577127892142],[139.4096328662638,35.94920464068167],[139.39193700438932,35.95331800032551],[139.37215914452895,35.94496386509036],[139.35239627816577,35.928188054635086],[139.36647464319026,35.92777083845351],[139.37948185540336,35.919925559417095],[139.3891896375918,35.91423305411223],[139.41193083014377,35.92399969423053],[139.42882066114464,35.940242999914574],[139.42146041526598,35.95577127892142]]]},"properties":{"N03_001":"埼玉県","N03_002":null,"N03_003":null,"N03_004":"鶴ヶ島市","N03_007":"11241"}}]}